NORAD_CAT_ID,OBJECT_NAME,OBJECT_TYPE,EPOCH,MEAN_MOTION,ECCENTRICITY,INCLINATION,RA_OF_ASC_NODE,ARG_OF_PERICENTER,MEAN_ANOMALY,BSTAR,MEAN_MOTION_DOT,MEAN_MOTION_DDOT,TLE_LINE0,TLE_LINE1,TLE_LINE2,SEMIMAJOR_AXIS,PERIOD,APOGEE,PERIGEE,DECAYED
54081.0,STARLINK-5165,PAYLOAD,2023-10-15 11:33:15,15.08827442,0.0001696,53.2172,307.7651,93.7019,266.4167,-6.9884e-05,-1.4e-05,0.0,0 STARLINK-5165,1 54081U 22136AG  23288.48143022 -.00001400  00000-0 -69884-4 0  9995,2 54081  53.2172 307.7651 0001696  93.7019 266.4167 15.08827442 54709,6917.919,95.438,540.957,538.61,0.0
54081.0,STARLINK-5165,PAYLOAD,2023-10-15 17:54:47,15.08835217,0.0001751,53.2178,306.5774,96.7923,263.3268,6.0339e-05,6.72e-06,0.0,0 STARLINK-5165,1 54081U 22136AG  23288.74638813  .00000672  00000-0  60339-4 0  9995,2 54081  53.2178 306.5774 0001751  96.7923 263.3268 15.08835217 55222,6917.895,95.438,540.971,538.549,0.0
54081.0,STARLINK-5165,PAYLOAD,2023-10-16 08:13:15,15.08859037,0.0001537,53.2167,303.9006,93.693,266.4238,0.0010505,0.00016479,0.0,0 STARLINK-5165,1 54081U 22136AG  23289.34254497  .00016479  00000-0  10505-2 0  9994,2 54081  53.2167 303.9006 0001537  93.6930 266.4238 15.08859037 55312,6917.822,95.436,540.75,538.624,0.0
54081.0,STARLINK-5165,PAYLOAD,2023-10-17 09:39:25,15.0885606,0.0001394,53.2164,299.1432,98.349,261.766,0.00048753,7.483e-05,0.0,0 STARLINK-5165,1 54081U 22136AG  23290.40238018  .00007483  00000-0  48753-3 0  9996,2 54081  53.2164 299.1432 0001394  98.3490 261.7660 15.08856060 55479,6917.831,95.437,540.661,538.732,0.0
54081.0,STARLINK-5165,PAYLOAD,2023-10-17 17:36:21,15.08851357,0.0001848,53.2164,297.6557,93.6477,266.4727,0.00070936,0.00011023,0.0,0 STARLINK-5165,1 54081U 22136AG  23290.73358081  .00011023  00000-0  70936-3 0  9998,2 54081  53.2164 297.6557 0001848  93.6477 266.4727 15.08851357 55040,6917.846,95.437,540.989,538.432,0.0
54081.0,STARLINK-5165,PAYLOAD,2023-10-18 09:30:13,15.08836834,0.000199,53.2159,294.6829,93.4861,266.6359,0.00014715,2.054e-05,0.0,0 STARLINK-5165,1 54081U 22136AG  23291.39598570  .00002054  00000-0  14715-3 0  9997,2 54081  53.2159 294.6829 0001990  93.4861 266.6359 15.08836834 55626,6917.89,95.438,541.132,538.378,0.0
54081.0,STARLINK-5165,PAYLOAD,2023-10-19 09:20:59,15.08854017,0.0001601,53.2159,290.2211,96.9617,263.1557,0.00069518,0.00010797,0.0,0 STARLINK-5165,1 54081U 22136AG  23292.38958288  .00010797  00000-0  69518-3 0  9997,2 54081  53.2159 290.2211 0001601  96.9617 263.1557 15.08854017 55770,6917.838,95.437,540.81,538.595,0.0
54081.0,STARLINK-5165,PAYLOAD,2023-10-19 17:17:56,15.0884006,0.0001943,53.2179,288.7344,86.6762,273.4453,0.00019809,2.866e-05,0.0,0 STARLINK-5165,1 54081U 22136AG  23292.72078772  .00002866  00000-0  19809-3 0  9992,2 54081  53.2179 288.7344 0001943  86.6762 273.4453 15.08840060 55825,6917.88,95.438,541.089,538.401,0.0
54081.0,STARLINK-5165,PAYLOAD,2023-10-20 09:11:47,15.0884523,0.0001838,53.2171,285.7574,99.0129,261.1071,0.00021559,3.145e-05,0.0,0 STARLINK-5165,1 54081U 22136AG  23293.38318609  .00003145  00000-0  21559-3 0  9997,2 54081  53.2171 285.7574 0001838  99.0129 261.1071 15.08845230 55449,6917.864,95.437,541.001,538.458,0.0
54081.0,STARLINK-5165,PAYLOAD,2023-10-21 02:41:02,15.08838849,0.0002129,53.2177,282.4872,115.1277,244.9936,8.0489e-05,9.93e-06,0.0,0 STARLINK-5165,1 54081U 22136AG  23294.11182974  .00000993  00000-0  80489-4 0  9999,2 54081  53.2177 282.4872 0002129 115.1277 244.9936 15.08838849 56031,6917.884,95.438,541.222,538.276,0.0
54081.0,STARLINK-5165,PAYLOAD,2023-10-21 05:51:48,15.08840988,0.0001574,53.2172,281.8937,97.0291,263.088,0.00017129,2.439e-05,0.0,0 STARLINK-5165,1 54081U 22136AG  23294.24431045  .00002439  00000-0  17129-3 0  9996,2 54081  53.2172 281.8937 0001574  97.0291 263.0880 15.08840988 55573,6917.877,95.437,540.831,538.653,0.0
54081.0,STARLINK-5165,PAYLOAD,2023-10-22 05:42:34,15.08855699,0.0001579,53.2167,277.4334,95.3665,264.7507,0.0004746,7.277e-05,0.0,0 STARLINK-5165,1 54081U 22136AG  23295.23790487  .00007277  00000-0  47460-3 0  9990,2 54081  53.2167 277.4334 0001579  95.3665 264.7507 15.08855699 56200,6917.832,95.437,540.79,538.605,0.0
54081.0,STARLINK-5165,PAYLOAD,2023-10-22 08:53:21,15.0885841,0.0001574,53.2166,276.8386,96.0855,264.0317,0.00055963,8.634e-05,0.0,0 STARLINK-5165,1 54081U 22136AG  23295.37038373  .00008634  00000-0  55963-3 0  9999,2 54081  53.2166 276.8386 0001574  96.0855 264.0317 15.08858410 55747,6917.824,95.436,540.778,538.6,0.0
54081.0,STARLINK-5165,PAYLOAD,2023-10-23 05:33:22,15.08835547,0.0001517,53.2167,272.9743,84.9382,275.1783,1.2081e-05,-9.6e-07,0.0,0 STARLINK-5165,1 54081U 22136AG  23296.23151236 -.00000096  00000-0  12081-4 0  9999,2 54081  53.2167 272.9743 0001517  84.9382 275.1783 15.08835547 56354,6917.894,95.438,540.808,538.71,0.0
54081.0,STARLINK-5165,PAYLOAD,2023-10-23 15:05:41,15.08837267,0.0001519,53.2165,271.1896,82.1347,277.9818,0.00021951,3.207e-05,0.0,0 STARLINK-5165,1 54081U 22136AG  23296.62895429  .00003207  00000-0  21951-3 0  9992,2 54081  53.2165 271.1896 0001519  82.1347 277.9818 15.08837267 55938,6917.889,95.438,540.805,538.703,0.0
54081.0,STARLINK-5165,PAYLOAD,2023-10-24 05:24:09,15.08849835,0.0001506,53.2164,268.5147,85.6226,274.4938,0.00065297,0.00010122,0.0,0 STARLINK-5165,1 54081U 22136AG  23297.22511302  .00010122  00000-0  65297-3 0  9999,2 54081  53.2164 268.5147 0001506  85.6226 274.4938 15.08849835 56509,6917.85,95.437,540.757,538.673,0.0
54081.0,STARLINK-5165,PAYLOAD,2023-10-25 06:50:19,15.08851262,0.0001556,53.2164,263.7578,93.9945,266.1225,0.00034913,5.274e-05,0.0,0 STARLINK-5165,1 54081U 22136AG  23298.28495100  .00005274  00000-0  34913-3 0  9996,2 54081  53.2164 263.7578 0001556  93.9945 266.1225 15.08851262 56660,6917.846,95.437,540.787,538.635,0.0
54081.0,STARLINK-5165,PAYLOAD,2023-10-26 03:30:20,15.08845657,0.0001651,53.2157,259.8942,98.0257,262.0922,0.00022335,3.269e-05,0.0,0 STARLINK-5165,1 54081U 22136AG  23299.14607248  .00003269  00000-0  22335-3 0  9997,2 54081  53.2157 259.8942 0001651  98.0257 262.0922 15.08845657 56795,6917.863,95.437,540.87,538.586,0.0
54081.0,STARLINK-5165,PAYLOAD,2023-10-26 08:16:29,15.08850406,0.0001655,53.216,258.9975,96.1586,263.9594,0.00053285,8.205e-05,0.0,0 STARLINK-5165,1 54081U 22136AG  23299.34479053  .00008205  00000-0  53285-3 0  9993,2 54081  53.2160 258.9975 0001655  96.1586 263.9594 15.08850406 56347,6917.849,95.437,540.858,538.569,0.0
54081.0,STARLINK-5165,PAYLOAD,2023-10-27 04:56:29,15.08861508,0.0001651,53.2157,255.1307,111.376,248.7409,0.00080224,0.0001251,0.0,0 STARLINK-5165,1 54081U 22136AG  23300.20590248  .00012510  00000-0  80224-3 0  9998,2 54081  53.2157 255.1307 0001651 111.3760 248.7409 15.08861508 56959,6917.815,95.436,540.822,538.538,0.0
54081.0,STARLINK-5165,PAYLOAD,2023-10-27 20:50:22,15.08827596,0.0001631,53.2155,252.1573,96.6065,263.5113,-0.00034323,-5.745e-05,0.0,0 STARLINK-5165,1 54081U 22136AG  23300.86831117 -.00005745  00000-0 -34323-3 0  9996,2 54081  53.2155 252.1573 0001631  96.6065 263.5113 15.08827596 57058,6917.918,95.438,540.912,538.655,0.0
54081.0,STARLINK-5165,PAYLOAD,2023-10-28 14:19:37,15.08832544,0.0001589,53.2155,248.8865,96.4515,263.6658,8.9268e-05,1.133e-05,0.0,0 STARLINK-5165,1 54081U 22136AG  23301.59695677  .00001133  00000-0  89268-4 0  9990,2 54081  53.2155 248.8865 0001589  96.4515 263.6658 15.08832544 56686,6917.903,95.438,540.867,538.669,0.0
54081.0,STARLINK-5165,PAYLOAD,2023-10-28 20:41:09,15.08837821,0.0001572,53.2153,247.6972,94.3942,265.723,0.00027854,4.147e-05,0.0,0 STARLINK-5165,1 54081U 22136AG  23301.86191756  .00004147  00000-0  27854-3 0  9999,2 54081  53.2153 247.6972 0001572  94.3942 265.7230 15.08837821 57204,6917.887,95.438,540.84,538.665,0.0
54081.0,STARLINK-5165,PAYLOAD,2023-10-29 03:02:42,15.08849033,0.0001608,53.2166,246.5081,92.9889,267.1288,0.00092727,0.00014504,0.0,0 STARLINK-5165,1 54081U 22136AG  23302.12687800  .00014504  00000-0  92727-3 0  9998,2 54081  53.2166 246.5081 0001608  92.9889 267.1288 15.08849033 57242,6917.853,95.437,540.83,538.605,0.0
54081.0,STARLINK-5165,PAYLOAD,2023-10-29 20:31:56,15.08849527,0.000167,53.2156,243.2366,83.0007,277.1175,0.00064128,9.935e-05,0.0,0 STARLINK-5165,1 54081U 22136AG  23302.85551981  .00009935  00000-0  64128-3 0  9994,2 54081  53.2156 243.2366 0001670  83.0007 277.1175 15.08849527 57359,6917.851,95.437,540.872,538.561,0.0
54081.0,STARLINK-5165,PAYLOAD,2023-10-30 06:04:15,15.08861255,0.0001473,53.2165,241.4526,98.6116,261.5043,0.00084007,0.00013115,0.0,0 STARLINK-5165,1 54081U 22136AG  23303.25295461  .00013115  00000-0  84007-3 0  9990,2 54081  53.2165 241.4526 0001473  98.6116 261.5043 15.08861255 56937,6917.815,95.436,540.699,538.661,0.0
54081.0,STARLINK-5165,PAYLOAD,2023-10-31 12:16:35,15.08845334,0.0001434,53.2175,235.8049,106.2829,253.8321,0.000592,9.148e-05,0.0,0 STARLINK-5165,1 54081U 22136AG  23304.51152044  .00009148  00000-0  59200-3 0  9997,2 54081  53.2175 235.8049 0001434 106.2829 253.8321 15.08845334 57607,6917.864,95.437,540.721,538.737,0.0
54081.0,STARLINK-5165,PAYLOAD,2023-10-31 18:38:07,15.08842859,0.0001662,53.2183,234.6179,114.4078,245.7087,0.00033769,5.091e-05,0.0,0 STARLINK-5165,1 54081U 22136AG  23304.77648108  .00005091  00000-0  33769-3 0  9991,2 54081  53.2183 234.6179 0001662 114.4078 245.7087 15.08842859 57166,6917.872,95.437,540.886,538.587,0.0
54081.0,STARLINK-5165,PAYLOAD,2023-11-01 04:10:26,15.088466,0.000156,53.2181,232.8321,104.4841,255.6324,0.00020842,3.031e-05,0.0,0 STARLINK-5165,1 54081U 22136AG  23305.17391950  .00003031  00000-0  20842-3 0  9996,2 54081  53.2181 232.8321 0001560 104.4841 255.6324 15.08846600 57709,6917.86,95.437,540.804,538.646,0.0
54081.0,STARLINK-5165,PAYLOAD,2023-11-01 12:07:22,15.08841789,0.0001327,53.2171,231.3432,94.1157,265.9986,0.00024292,3.58e-05,0.0,0 STARLINK-5165,1 54081U 22136AG  23305.50512032  .00003580  00000-0  24292-3 0  9991,2 54081  53.2171 231.3432 0001327  94.1157 265.9986 15.08841789 57274,6917.875,95.437,540.658,538.822,0.0
